{"fetched_at":"2026-03-30T06:02:59Z","count":15439,"tles":[{"name":"STARLINK-35027","line1":"1 65466U 25195J   26087.63734647  .00032993  00000+0  11210-2 0  9994","line2":"2 65466  53.1593 170.2449 0001432  67.9737 292.1416 15.30202628 32897","category":"Starlink"}]}